,business,category,address,lat,long,lifeline
0,T-Mobile,mobilephones,"7608 Linda Vista Rd', 'Ste 120', 'San Diego, CA 92111",32.8014979280811,-117.158534657265,5
1,Webpass,isps,"1360 5th Ave', 'San Diego, CA 92101",32.7194405,-117.1603241,5
2,KSDS Jazz 88.3,radiostations,"1313 Park Blvd', 'San Diego, CA 92101",32.717458,-117.1526701,5
3,Ego id Media - San Diego,graphicdesign,"3538 Adams Ave', 'San Diego, CA 92116",32.76361,-117.11639,5
4,ZTelco,isps,"9105 Chesapeake Dr', 'San Diego, CA 92123",32.83919,-117.1325,5
5,Verizon Authorized Retailer - GoWireless,mobilephones,"1248 University Ave', 'San Diego, CA 92103",32.7490142,-117.1523673,5
6,T-Mobile,mobilephones,"7007 Friars Rd', 'Ste 877', 'San Diego, CA 92108",32.768231,-117.166834,5
7,Sign It,printmedia,"3220 Kurtz St', 'Ste 100', 'San Diego, CA 92110",32.75386,-117.20583,5
8,Verizon Authorized Retailer - GoWireless,mobilephones,"7007 Friars Rd', 'Ste 207', 'San Diego, CA 92108",32.76884,-117.16848,5
9,T-Mobile,mobilephones,"3146 Sports Arena Blvd', 'Ste 4', 'San Diego, CA 92110",32.752618,-117.205772,5
10,T-Mobile,mobilephones,"120 W Washington St', 'San Diego, CA 92103",32.750091,-117.163512,5
11,Telesystems,telecommunications,"5886 Agee St', 'San Diego, CA 92122",32.84872,-117.20195,5
12,T-Mobile,mobilephones,"3952 Clairemont Mesa Blvd', 'Ste C', 'San Diego, CA 92117",32.8283712,-117.204240158196,5
13,ALT949,radiostations,"9665 Granite Ridge Dr', 'San Diego, CA 92123",32.8061,-117.12006,5
14,Shaun's Telecom,telecommunications,"San Diego, CA 92123",32.8073692321777,-117.134925842285,5
15,The Show 105.3,radiostations,"9660 Granite Ridge Dr', 'Ste 100', 'San Diego, CA 92123",32.8067301949953,-117.120933160186,5
16,105.7 The Walrus,radiostations,"San Diego, CA 92101",32.7211,-117.16431,5
17,T-Mobile,mobilephones,"5504 Balboa Ave', 'San Diego, CA 92111",32.8203,-117.18143,5
18,Verizon,mobilephones,"7035 Clairemont Mesa Blvd', 'Ste 401', 'San Diego, CA 92111",32.8323475038939,-117.166193454591,5
19,Verizon,mobilephones,"980 Camino De Ln', 'Spc 3', 'San Diego, CA 92108",32.7685603,-117.154469,5
20,T-Mobile,mobilephones,"1640 Camino Del Rio N', 'Ste 106', 'San Diego, CA 92108",32.768031,-117.149983,5
21,WiLine Networks,isps,"5264-5266 Eastgate Mall', 'San Diego, CA 92121",32.88252,-117.19488,5
22,San Diego CityBeat,printmedia,"3047 University Ave', 'Ste 202', 'San Diego, CA 92104",32.74824,-117.12847,5
23,91X,radiostations,"6160 Cornerstone Ct E', 'Ste 150', 'San Diego, CA 92121",32.896477,-117.187405,5
24,Cox Store,televisionserviceproviders,"1220 Cleveland Ave', 'Ste M-107', 'San Diego, CA 92103",32.749471,-117.1532518,5
25,Verizon Authorized Retailer - GoWireless,mobilephones,"3737 Murphy Canyon Rd', 'Ste B', 'San Diego, CA 92123",32.8095737991505,-117.115521132946,5
26,KPBS,televisionstations,"5200 Campanile Dr', 'San Diego, CA 92115",32.7717604,-117.0720449,5
27,FOX 5 San Diego - KSWB,televisionstations,"7191 Engineer Rd', 'San Diego, CA 92111",32.82669,-117.16146,5
28,Verizon,mobilephones,"3505 Sports Arena Blvd', 'Ste A', 'San Diego, CA 92110",32.7534716,-117.2119007,5
29,Verizon Authorized Retailer - GoWireless,mobilephones,"6348 College Grove Way', 'Ste 107', 'San Diego, CA 92115",32.7381633,-117.0559626,5
30,M5 Hosting,isps,"9725 Scranton Rd', 'San Diego, CA 92121",32.8974545,-117.2006974,5
31,Time Warner Cable,televisionserviceproviders,"3051 Clairemont Dr', 'San Diego, CA 92117",32.79477,-117.19256,5
32,Spectrum,isps,"8949 Ware Ct', 'San Diego, CA 92121",32.8871903,-117.1680777,5
33,AT&T Internet,isps,"San Diego, CA 92101",32.7176361083984,-117.162132263184,5
34,Get1Free Marketing,printmedia,"4180 Ruffin Rd', 'Ste 235', 'San Diego, CA 92123",32.8171661,-117.1252253,5
35,T-Mobile,mobilephones,"1014 5th Ave', 'Ste 100', 'San Diego, CA 92101",32.7159385651894,-117.160532623529,5
36,T-Mobile,mobilephones,"5807 University Ave', 'Ste 6', 'San Diego, CA 92115",32.749148,-117.071914,5
37,Damascus,graphicdesign,"906 10th Ave', 'Ste 103', 'San Diego, CA 92101",32.7148889,-117.1557349,5
38,ScaleMatrix,isps,"5775 Kearny Villa Rd', 'San Diego, CA 92123",32.837756,-117.132835,5
39,I Heart Media,radiostations,"9660 Granite Ridge dr', 'Ste 100', 'San Diego, CA 92123",32.8052323953294,-117.120985915344,5
40,Cox Store,isps,"1535 Euclid Ave', 'San Diego, CA 92105",32.7204954875978,-117.082455,5
41,T-Mobile,mobilephones,"6551 Mission Gorge', 'San Diego, CA 92120",32.792241,-117.0964975,5
42,T-Mobile,mobilephones,"3089 Clairemont Dr', 'Ste A', 'San Diego, CA 92117",32.7964719,-117.1928518,5
43,San Diego Union-Tribune,printmedia,"600 B St', 'Ste 1201', 'San Diego, CA 92101",32.718147,-117.1585979,5
44,Cox Communications Residential Services,televisionserviceproviders,"5159 Federal Blvd', 'San Diego, CA 92105",32.720459,-117.0825806,5
45,Telephone System Technician,telecommunications,"3021 Acacia St', 'San Diego, CA 92113",32.6933898925781,-117.118896484375,5
46,Channel 933 KHTS FM,radiostations,"San Diego, CA 92123",32.8073692321777,-117.134925842285,5
47,Skyriver,isps,"7310 Miramar Rd', 'Ste 600', 'San Diego, CA 92126",32.8827332,-117.1560047,5
48,San Diego Productions,videofilmproductions,"San Diego, CA 92123",32.8043479919434,-117.134330749512,5
49,Rock 105 3 Kioz-Fm,radiostations,"9660 Granite Ridge Dr', 'San Diego, CA 92123",32.80677,-117.12093,5
50,Kyxy 96.5 FM Radio,radiostations,"8033 Linda Vista Rd', 'San Diego, CA 92111",32.8073997497559,-117.153999328613,5
51,T-Mobile,mobilephones,"1900 Main St', 'Ste 189', 'San Diego, CA 92113",32.699123,-117.146,5
52,T-Mobile,mobilephones,"3807 Fairmont Ave', 'Ste 100', 'San Diego, CA 92105",32.7480927,-117.100712,5
53,T-Mobile,mobilephones,"7420 Clairemont Mesa Blvd', 'Ste 117', 'San Diego, CA 92111",32.8335723,-117.158444523811,5
54,T-Mobile,mobilephones,"336 Euclid Ave', 'Ste 501', 'San Diego, CA 92114",32.7084736691789,-117.086592804893,5
55,NBC 7 Channel 39,televisionstations,"9680 Granite Ridge Dr', 'San Diego, CA 92123",32.715559,-117.162223,5
56,Columbia Pacific Telesystems,telecommunications,"9672 Via Excelencia', 'Ste 204', 'San Diego, CA 92126",32.8988556,-117.1178407,5
57,Pacific San Diego Magazine,printmedia,"2165 San Diego Ave', 'Ste 202', 'San Diego, CA 92110",32.7469825744629,-117.190719604492,5
58,101KGB San Diego's Classic Rock,radiostations,"9660 Granite Ridge Dr', 'Ste 100', 'San Diego, CA 92123",32.8068161010742,-117.120941162109,5
59,Channel 933 Khts-Fm Radio,radiostations,"9660 Granite Ridge Dr', 'San Diego, CA 92123",32.80677,-117.12093,5
60,KGTV ABC 10 News,televisionstations,"4600 Air Way', 'San Diego, CA 92102",32.72005,-117.09576,5
61,Earthbound Radio,radiostations,"San Diego, CA 92101",32.7211,-117.16431,5
62,Teldata Enterprise Networks,security,"11487 Woodside Ave', 'Santee, CA 92071",32.85064,-116.9494,5
63,Magic 92.5,radiostations,"6160 Cornerstone Ct E', 'Ste 150', 'San Diego, CA 92121",32.896477,-117.187405,5
64,100.7 KFM-BFM,radiostations,"7677 Engineer Rd', 'San Diego, CA 92111",32.8266792297363,-117.156860351562,5
65,HillQuest Urban Guide,printmedia,"3742 7th Ave', 'Ste B', 'San Diego, CA 92103",32.74577,-117.1587,5
66,KOGO-AM 600 News Talk,radiostations,"5050 Murphy Canyon Rd', 'San Diego, CA 92123",32.83026,-117.12065,5
67,Natural Networks,datarecovery,"10225 Barnes Canyon Rd', 'Ste A105', 'San Diego, CA 92121",32.8991508483887,-117.196662902832,5
68,Sunny 98.1,radiostations,"1615 Murray Canyon Rd', 'Ste 710', 'San Diego, CA 92108",32.7748031616211,-117.157821655273,5
69,KFMB 760 AM Talk Radio,radiostations,"7677 Engineer Rd', 'San Diego, CA 92111",32.8266792297363,-117.156860351562,5
70,DawnSignPress,printmedia,"6130 Nancy Ridge Dr', 'San Diego, CA 92121",32.8892,-117.18671,5
71,T-Mobile,mobilephones,"3755 Murphy Canyon Rd', 'Ste A', 'San Diego, CA 92123",32.810881,-117.115859,5
72,Spectrum Internet & Cable Packages,isps,"San Diego, CA 92104",32.7502517700195,-117.136962890625,5
73,Star 94.1,radiostations,"9660 Granite Ridge Dr', 'Ste 100', 'San Diego, CA 92123",32.80677,-117.12093,5
74,CBS NEWS 8 - KFMB Stations,televisionstations,"7677 Engineer Rd', 'San Diego, CA 92111",32.8266487121582,-117.156860351563,5
75,Espresso San Diego's Coffeehouse & Cafe Newspaper,coffee,"740 13th St', 'San Diego, CA 92101",32.713047,-117.1529541,5
76,Eironclad Technology Solutions,web_design,"3590 Mt Acadia Blvd', 'San Diego, CA 92111",32.8070529,-117.1828908,5
77,Phone Systems Plus,telecommunications,"12528 Kirkham Ct', 'Ste 8', 'Poway, CA 92064",32.9436393,-117.0508834,5
78,San Diego Reader,printmedia,"2323 Broadway', 'Ste 200', 'San Diego, CA 92102",32.71556718686,-117.142957147006,5
79,Enhanced Voice & Data Networks,telecommunications,"4627 Mission Gorge Pl', 'Ste A', 'San Diego, CA 92120",32.7823583,-117.0936122,5
80,AIS Data Centers,isps,"9305 Lightwave Ave', 'San Diego, CA 92123",32.8280675,-117.1299064,5
81,Mission Bay Media,web_design,"4490 Fanuel St', 'Ste 205', 'San Diego, CA 92109",32.7982712,-117.2464371,5
82,V-Me,televisionstations,"5200 Campanile Dr', 'San Diego, CA 92115",32.7717604,-117.0720449,5
83,voiceofsandiego.org,nonprofit,"2508 Historic Decatur Rd', 'San Diego, CA 92106",32.73704,-117.21452,5
84,Gold Star IT Solutions,itservices,"9615 Gold Coast Dr', 'F8', 'San Diego, CA 92126",32.90464417,-117.1193165,5
85,Wave.Band,telecommunications,"6920 Miramar Rd', 'Ste 306', 'San Diego, CA 92121",32.8793,-117.16631,5
86,Z90.3,radiostations,"6160 Cornerstone Ct E', 'Ste 150', 'San Diego, CA 92121",32.896477,-117.187405,5
87,Geek Squad,telecommunications,"5151 Mission Ctr Rd', 'San Diego, CA 92108",32.7706771,-117.1499598,5
88,I2B Networks,isps,"8830 Complex Dr', 'San Diego, CA 92123",32.8300827741623,-117.137874662876,5
89,T-Mobile,mobilephones,"4309 La Jolla Village Dr', 'Ste 2340', 'Lajolla, CA 92122",32.870821,-117.212409,5
90,Inventiva Design,marketing,"6362 Amberly St', 'San Diego, CA 92120",32.8036613,-117.0565872,5
91,Jam'n 957,radiostations,"9660 Granite Ridge Dr', 'Ste 100', 'San Diego, CA 92123",32.8067703,-117.1209335,5
92,Cox Communications,televisionserviceproviders,"5159 Federal Blvd', 'San Diego, CA 92105",32.7214246549104,-117.084586494847,5
93,Kson 97 3 Fm Today's Best Country,radiostations,"1615 Murray Canyon Rd', 'Ste 710', 'San Diego, CA 92108",32.7748031616211,-117.157821655273,5
94,Phoneall,telecommunications,"800 The Mark Ln', 'SAN DIEGO, CA 92101",32.710961,-117.156932,5
95,Cox San Diego,televisionserviceproviders,"5159 Federal Blvd', 'San Diego, CA 92105",32.720459,-117.08258,5
96,CWY Marketing and Consulting,printmedia,"731 9th Ave', 'San Diego, CA 92101",32.713028,-117.156204,5
97,Verizon Authorized Retailer - GoWireless,mobilephones,"4545 LaJolla Village Dr', 'Ste 9010', 'San Diego, CA 92122",32.8734842,-117.2098198,5
98,Cox High Speed Internet,televisionstations,"San Diego, CA 92101",32.7211,-117.16431,5
99,Cox Business,isps,"5159 Federal Blvd', 'San Diego, CA 92105",32.7207085393549,-117.082569306082,5
100,San Diego Newsstands,mags,"4545 La Jolla Village Dr', 'San Diego, CA 92122",32.8734818,-117.2098312,5
101,Keepgo,isps,"5910 Pacific Center Blvd', 'Ste 320', 'San Diego, CA 92121",32.9052342,-117.1907246,5
102,T-Mobile,cellphoneaccessories,"8801-8879 Villa La Jolla Dr', 'La Jolla, CA 92037",32.869201,-117.232692,5
103,T-Mobile,mobilephones,"2720 E Plaza Blvd', 'Ste P', 'National City, CA 91950",32.680259,-117.077732706016,5
104,KSDT Radio,radiostations,"9500 Gilman Dr', 'University of California San Diego', 'San Diego, CA 92093",32.877228,-117.240235,5
105,West Coast WiFi,isps,"San Diego, CA 92110",32.7638816833496,-117.200706481934,5
106,Kson Country 92 1 Fm,radiostations,"San Diego, CA 92101",32.7211,-117.16431,5
107,Cbeyond,isps,"6256 Greenwich Drive', 'Suite 400', 'San Diego, CA 92122",32.85271,-117.18314,5
108,XX Sports Radio,radiostations,"6160 Cornerstone Ct E', 'Ste 100', 'San Diego, CA 92121",32.8964767456055,-117.187408447266,5
109,Union-Tribune Publishing,printmedia,"600 B St', 'Ste 1201', 'San Diego, CA 92101",32.7182,-117.15882,5
110,DISH,televisionserviceproviders,"San Diego, CA 92101",32.71763,-117.16213,5
111,Tiki Magazine,printmedia,"5663 Balboa Ave', 'Ste 398', 'San Diego, CA 92111",32.8194299,-117.17978,5
112,Enlace,printmedia,"350 Camino De La Reina', 'San Diego, CA 92108",32.76424,-117.16553,5
113,ITV San Diego's Educational Channel,televisionstations,"6401 Linda Vista Rd', 'San Diego, CA 92111",32.7694091796875,-117.179611206055,5
114,Kyxy 96 5 Fm Radio,radiostations,"San Diego, CA 92101",32.7211,-117.16431,5
115,Univision,televisionstations,"5770 Ruffin Rd', 'San Diego, CA 92123",32.83877,-117.1275169,5
116,Verizon Authorized Retailer - GoWireless,mobilephones,"2995 Clairemont Dr', 'San Diego, CA 92117",32.79402,-117.19427,5
117,Verizon,electronics,"8795 Villa La Jolla Dr', 'Ste 102', 'La Jolla, CA 92037",32.8681046040993,-117.232558392521,5
118,Xhas,televisionstations,"5770 Ruffin Rd', 'San Diego, CA 92123",32.83876,-117.12779,5
119,A Way with Words: National Public Radio,arts,"San Diego, CA",32.71568,-117.16171,5
120,Channel 96.1,radiostations,"San Diego, CA 92101",32.7229537963867,-117.169792175293,5
121,Elephant Eater Comics,printmedia,"San Diego, CA 92101",32.7211,-117.16431,5
122,FMT Solutions,televisionserviceproviders,"9630 Black Mountain Rd', 'Ste C', 'San Diego, CA 92126",32.8979994,-117.1242068,5
123,More Fm 98 9,radiostations,"1027 10th Ave', 'Ste C', 'San Diego, CA 92101",32.716167,-117.155319,5
124,Easy 98.1FM,radiostations,"San Diego, CA",,,5
125,The Rowdy Report Studio,radiostations,"5561 Las Alturas Ter', 'San Diego, CA 92114",32.70237,-117.0772,5
126,944,printmedia,"611 W G St', 'Ste 122', 'San Diego, CA 92101",32.7122535705566,-117.168563842773,5
127,Expo Outfitters,marketing,"8533 Production Ave', 'San Diego, CA 92121",32.8809927,-117.1651993,5
128,U.S. 95.7 FM,radiostations,"9660 Granite Ridge Dr', 'Ste 100', 'San Diego, CA 92123",32.8068161010742,-117.120941162109,5
129,91X Resurrection Weekend,radiostations,"6160 Cornerstone Ct E', 'San Diego, CA 92121",32.896477,-117.187405,5
130,San Diego Union-Tribune,advertising,"350 Camino De La Reina', 'San Diego, CA 92108",32.7658615112305,-117.16414642334,5
131,W S Radio,radiostations,"6150 Lusk Blvd', 'San Diego, CA 92121",32.89917,-117.19666,5
132,The Daily Transcript,printmedia,"2652 4th Ave', 'Fl 2', 'San Diego, CA 92103",32.733156,-117.161508,5
133,Telepacific Communications,isps,"6134 Nancy Ridge Dr', 'San Diego, CA 92121",32.8896026611328,-117.186698913574,5
134,Convergence Communications,isps,"101 W Broadway', 'Ste 510', 'San Diego, CA 92101",32.715075,-117.16425,5
135,Best Cable & Satellite TV,televisionserviceproviders,"San Diego, CA 92108",32.78289,-117.11059,5
136,North Park News,printmedia,"1250 6th Ave', 'San Diego, CA 92101",32.71854,-117.15957,5
137,MVS Radio,radiostations,"9660 Granite Ridge Dr', 'Ste 200', 'San Diego, CA 92123",32.8068161010742,-117.120941162109,5
138,Loudspeaker SD,radiostations,"9660 Granite Ridge Dr', 'Ste Dr 200', 'San Diego, CA 92101",32.8068161010742,-117.120941162109,5
139,Gay & Lesbian Times,printmedia,"1730 Monroe Ave', 'Ste A', 'San Diego, CA 92116",32.7593,-117.14665,5
140,Telcomtec,telecommunications,"120 N Pacific St', 'Ste J2', 'San Marcos, CA 92069",33.148584,-117.195459,5
141,Vision Magazine,printmedia,"1281 University Ave', 'Ste G', 'San Diego, CA 92103",32.7480199,-117.15168,5
142,Star 100 7 Fm,radiostations,"7677 Engineer Rd', 'San Diego, CA 92111",32.8266792297363,-117.156860351562,5
143,San Diego Pix,printmedia,"1010 University Ave', 'San Diego, CA 92103",32.7493399,-117.15432,5
144,Armed Forces Dispatch Newspaper,printmedia,"10981 San Diego Mission Rd', 'Ste 112', 'San Diego, CA 92108",32.7846044,-117.1019004,5
145,Mission Times Courier,printmedia,"6549 Mission Gorge Rd', 'San Diego, CA 92120",32.79155,-117.09697,5
146,Wealth TV,televisionstations,"4757 Morena Blvd', 'San Diego, CA 92117",32.825047,-117.229164,5
147,Nguoi Viet Today,printmedia,"4660 El Cajon Blvd', 'Ste 105', 'San Diego, CA 92115",32.7564010620117,-117.093658447266,5
148,LGBT Weekly,printmedia,"1850 Fifth Ave', 'Ste 25', 'San Diego, CA 92101",32.72486,-117.16053,5
149,Boost Mobile Premier Store,mobilephones,"5945 Balboa Ave', 'San Diego, CA 92111",32.81969,-117.17738,5
150,The Espresso,printmedia,"San Diego, CA 92112",32.71454,-117.15735,5
151,The Rage Monthly,printmedia,"San Diego, CA 92103",32.715738,-117.1610838,5
152,Simply Wired Low Voltage,homenetworkinstall,"Oceanside, CA 92057",33.2247828525685,-117.295642092629,5
153,San Diego Voice & Viewpoint Newspaper,printmedia,"3619 College Ave', 'San Diego, CA 92115",32.746154,-117.059244,5
154,Coveredge TV News Service,televisionstations,"315 Market St', 'San Diego, CA 92101",32.71121,-117.16165,5
155,Kcbq 1170 Am,radiostations,"9255 Towne Centre Dr', 'Ste 535', 'San Diego, CA 92121",32.87578,-117.20701,5
156,Local Media Of America,radiostations,"6160 Cornerstone Ct E', 'San Diego, CA 92121",32.896477,-117.187405,5
157,Level 3 Communications,isps,"8929 Aero Dr', 'San Diego, CA 92123",32.808967590332,-117.135902404785,5
158,SignOn San Diego Daily Deal,printmedia,"350 Camino De La Reina', 'San Diego, CA 92108",32.76424,-117.16553,5
159,Hughes,isps,"9605 Scranton Rd', 'San Diego, CA 92121",32.89699,-117.20093,5
160,Kifm Smooth Jazz 98 1 Fm,radiostations,"San Diego, CA 92101",32.7211,-117.16431,5
161,Xtra Sport 1360 AM,radiostations,"9660 Granite Ridge Dr', 'Ste 100', 'San Diego, CA 92123",32.8068161010742,-117.120941162109,5
162,San Diego Social Magazine,printmedia,"625 Broadway', 'Ste 1100', 'San Diego, CA 92101",32.715464,-117.158888,5
163,SignOn San Diego,printmedia,"350 Camino De La Reina', 'San Diego, CA 92108",32.764063,-117.1649566,5
164,Vitrorobertson,printmedia,"625 Broadway', 'San Diego, CA 92101",32.7340394565636,-117.217402937086,5
165,Revolt Magazine,printmedia,"San Diego, CA 92169",32.79904,-117.25244,5
166,Ur Wire Guy,telecommunications,"32900 Riverside Dr', 'Lake Elsinore, CA 92530",33.66625101978,-117.382956485986,5
167,I Sold It,isps,"7061 Clairemont Mesa Blvd', 'Ste 209', 'San Diego, CA 92111",32.8325151,-117.1645497,5
168,KSDW 88.9FM,radiostations,"San Diego, CA",33.5024795532227,-117.166931152344,5
169,Military Press,printmedia,"9715 Carroll Centre Rd', 'Ste 104', 'San Diego, CA 92126",32.89853,-117.12183,5
170,Sagewood Group,isps,"San Diego, CA 92111",32.823984,-117.157001,5
171,Herring Broadcasting System,televisionstations,"4757 Morena Blvd', 'San Diego, CA 92117",32.8250699,-117.22916,5
172,Vjsatellites,televisionserviceproviders,"9449 Friars Rd', 'San Diego, CA 92108",32.7864674,-117.1205702,5
173,Precise Media PR,printmedia,"San Diego, CA",32.71568,-117.16171,5
174,Art Rocks 247,radiostations,"345 6th Ave', 'San Diego, CA 92101",32.70892,-117.1589,5
175,San Diego Fresh Design,printmedia,"San Diego, CA 92131",32.9193115234375,-117.068977355957,5
176,The Chinese News,printmedia,"4463 University Ave', 'San Diego, CA 92105",32.74935,-117.09834,5
177,San Diego Off Roader Magazine,printmedia,"San Diego, CA 92101",32.7211,-117.16431,5
178,Miramar Sign Company,copyshops,"10102 Miramar Rd', 'San Diego, CA 92126",32.893423140049,-117.116900458932,5
179,Affluent Living Publications,printmedia,"1081 Camino Del Rio S', 'San Diego, CA 92108",32.7641181945801,-117.152923583984,5
180,UCSD Guardian,printmedia,"9500 Gilman Dr', 'La Jolla, CA 92039",32.8772549,-117.2373495,5
181,PacificIP,telecommunications,"6920 Miramar Rd', 'Ste 218', 'San Diego, CA 92121",32.8793,-117.16631,5
182,Custom Banner Printing and Stickers,printmedia,"9715 Carroll Center Rd', 'Ste 102', 'San Diego, CA 92126",32.89853,-117.12183,5
183,San Diego Bride & Groom,printmedia,"438 Camino Del Rio S', 'San Diego, CA 92108",32.7616692,-117.1606979,5
184,Spectrum,isps,"1110 Orange Ave', 'Coronado, CA 92118",32.684713,-117.17998,5
185,Dot Com Host,isps,"3969 4th Ave', 'San Diego, CA 92103",32.74948,-117.16127,5
186,San Diego Business Journal,printmedia,"4909 Murphy Canyon Rd', 'San Diego, CA 92123",32.8288307189941,-117.119232177734,5
187,Verizon Authorized Retailer - GoWireless,mobilephones,"953 Orange Ave', 'Coronado, CA 92118",32.6862846217236,-117.179287890913,5
188,Cox Digital Telephone,televisionstations,"San Diego, CA 92101",32.7229537963867,-117.169792175293,5
189,Xo Communications,telecommunications,"5771 Copley Dr', 'San Diego, CA 92111",32.840875,-117.168968,5
190,Bars Society,printmedia,"113 W G St', 'Studio 742', 'San Diego, CA 92101",32.7124023,-117.1640396,5
191,Regional Internet,isps,"3525 Del Mar Heights Rd', 'Ste 980', 'San Diego, CA 92130",32.9535413,-117.2304232,5
192,Wireless Depot,isps,"4601 University Ave', 'Ste 92105', 'San Diego, CA 92105",32.7465273853528,-117.094566364592,5
193,TruComm SBS,telecommunications,"1387 N Cuyamaca St', 'El Cajon, CA 92020",32.8144731,-116.9791327,5
194,Klqv K-Love 102 9 Fm,radiostations,"600 W Broadway', 'San Diego, CA 92101",32.7167699,-117.16872,5
195,San Diego Jewish Journal,printmedia,"5665 Oberlin Dr', 'Ste 204', 'San Diego, CA 92121",32.89173,-117.19619,5
196,Sea Monster Marine,marketing,"2525 Shelter Island Dr', 'Ste A', 'San Diego, CA 92106",32.72001,-117.227,5
197,Southern California Telephone Company,isps,"27515 Enterprise Cir W', 'Temecula, CA 92590",33.5141413,-117.1645121,5
198,Update,printmedia,"2801 4th Ave', 'San Diego, CA 92103",32.7346992492676,-117.160926818848,5
199,Local Computer Pros,itservices,"Encinitas, CA 92023",33.0529,-117.27301,5
200,Telephone Jacks,telecommunications,"Oceanside, CA 92056",33.192168,-117.3028803,5
201,Kogo-Am 600 Radio,radiostations,"9660 Granite Ridge Dr', 'San Diego, CA 92123",32.80677,-117.12093,5
202,Lindberg Feild News,printmedia,"Terminal 1', 'Midway District, CA 92101",32.730673,-117.197454,5
203,Xpedient Communications,securitysystems,"5490 Complex St', 'San Diego, CA 92123",32.8338578,-117.134574,5
204,Affordable Telephone Systems,telecommunications,"333 South Juniper St', 'Ste 110', 'Escondido, CA 92025",33.120433,-117.077279,5
205,Dish Authorized Retailer,televisionserviceproviders,"1315 E Valley Pkwy', 'Vallarta Supermarkets', 'Escondido, CA 92027",33.1304629,-117.0641511,5
206,TeQ I.Q.,isps,"7317 El Cajon Blvd', 'La Mesa, CA 91942",32.7684647,-117.0398671,5
207,Pixel Imaging Media,printmedia,"1261 Liberty Way', 'Vista, CA 92081",33.137677,-117.232082,5
208,Ballpark Printing,copyshops,"1520 Main St', 'Ste C', 'Ramona, CA 92065",33.036795,-116.87674,5
209,Protel Communications,telecommunications,"13851 Danielson St', 'Poway, CA 92064",32.938591003418,-117.030746459961,5
210,BCS - Business Complete Solutions,officeequipment,"13750 Danielson St', 'Poway, CA 92064",32.93988,-117.03297,5
211,Socal Satellite,televisionserviceproviders,"246 N Emerald Dr', 'Ste 309', 'Vista, CA 92083",33.1912200573405,-117.28100001812,5
212,AT&T Internet,isps,"Eureka, CA 95534",40.77165,-124.1429,5
213,Newsline San Diego,printmedia,"333 Highland Ave', 'Ste A', 'National City, CA 91950",32.68191,-117.09989,5
214,LC Communications,televisionserviceproviders,"1120 S Rancho Santa Fe Rd', 'San Marcos, CA 92078",33.12595,-117.21486,5
215,Rightway Gate,isps,"3220 Executive Ridge Dr', 'Carlsbad, CA 92008",33.1357119098204,-117.222019844937,5
216,Telecomcepts,telecommunications,"3285 Trade Center Dr', 'Riverside, CA 92507",33.98323,-117.3462049,5
217,iTech2 Network Cabling Technology,telecommunications,"5319 University Dr', 'Ste 184', 'Irvine, CA 92612",33.6584149,-117.8031659,5
218,Tel-Path Communications,telecommunications,"34350 Blossoms Dr', 'Lake Elsinore, CA 92532",33.6674441220055,-117.237347509262,5
